[
{"CCSDS_OMM_VERS":"2.0",
"COMMENT":"GENERATED VIA SPACE-TRACK.ORG API",
"CREATION_DATE":"2022-02-28T18:51:58",
"ORIGINATOR":"18 SPCS",
"OBJECT_NAME":"VANGUARD 1",
"OBJECT_ID":"1958-002B",
"CENTER_NAME":"EARTH",
"REF_FRAME":"TEME",
"TIME_SYSTEM":"UTC",
"MEAN_ELEMENT_THEORY":"SGP4",
"EPOCH":"2022-02-28T11:13:29.512416",
"MEAN_MOTION":"10.84868423",
"ECCENTRICITY":"0.18450610",
"INCLINATION":"34.2578",
"RA_OF_ASC_NODE":"115.2159",
"ARG_OF_PERICENTER":"267.0287",
"MEAN_ANOMALY":"71.8837",
"EPHEMERIS_TYPE":"0",
"CLASSIFICATION_TYPE":"U",
"NORAD_CAT_ID":"5",
"ELEMENT_SET_NO":"999",
"REV_AT_EPOCH":"27270",
"BSTAR":"0.00035313000000",
"MEAN_MOTION_DOT":"0.00000296",
"MEAN_MOTION_DDOT":"0.0000000000000",
"SEMIMAJOR_AXIS":"8619.534",
"PERIOD":"132.735",
"APOAPSIS":"3831.756",
"PERIAPSIS":"651.043",
"OBJECT_TYPE":"PAYLOAD",
"RCS_SIZE":"MEDIUM",
"COUNTRY_CODE":"US",
"LAUNCH_DATE":"1958-03-17",
"SITE":"AFETR",
"DECAY_DATE":null,
"FILE":"3333642",
"GP_ID":"197340260",
"TLE_LINE0":"0 VANGUARD 1",
"TLE_LINE1":"1 00005U 58002B   22059.46770269  .00000296  00000-0  35313-3 0  9994",
"TLE_LINE2":"2 00005  34.2578 115.2159 1845061 267.0287  71.8837 10.84868423272703"},
{"CCSDS_OMM_VERS":"2.0",
"COMMENT":"GENERATED VIA SPACE-TRACK.ORG API",
"CREATION_DATE":"2022-02-28T14:46:15",
"ORIGINATOR":"18 SPCS",
"OBJECT_NAME":"VANGUARD 1",
"OBJECT_ID":"1958-002B",
"CENTER_NAME":"EARTH",
"REF_FRAME":"TEME",
"TIME_SYSTEM":"UTC",
"MEAN_ELEMENT_THEORY":"SGP4",
"EPOCH":"2022-02-28T11:13:29.515008",
"MEAN_MOTION":"10.84868414",
"ECCENTRICITY":"0.18450580",
"INCLINATION":"34.2578",
"RA_OF_ASC_NODE":"115.2159",
"ARG_OF_PERICENTER":"267.0287",
"MEAN_ANOMALY":"71.8838",
"EPHEMERIS_TYPE":"0",
"CLASSIFICATION_TYPE":"U",
"NORAD_CAT_ID":"5",
"ELEMENT_SET_NO":"999",
"REV_AT_EPOCH":"27279",
"BSTAR":"0.00035157000000",
"MEAN_MOTION_DOT":"0.00000295",
"MEAN_MOTION_DDOT":"0.0000000000000",
"SEMIMAJOR_AXIS":"8619.534",
"PERIOD":"132.735",
"APOAPSIS":"3831.753",
"PERIAPSIS":"651.045",
"OBJECT_TYPE":"PAYLOAD",
"RCS_SIZE":"MEDIUM",
"COUNTRY_CODE":"US",
"LAUNCH_DATE":"1958-03-17",
"SITE":"AFETR",
"DECAY_DATE":null,
"FILE":"3332778",
"GP_ID":"197320069",
"TLE_LINE0":"0 VANGUARD 1",
"TLE_LINE1":"1     5U 58002B   22059.46770272  .00000295  00000-0  35157-3 0  9993",
"TLE_LINE2":"2     5  34.2578 115.2159 1845058 267.0287  71.8838 10.84868414272799"},
{"CCSDS_OMM_VERS":"2.0",
"COMMENT":"GENERATED VIA SPACE-TRACK.ORG API",
"CREATION_DATE":"2022-03-01T17:17:25",
"ORIGINATOR":"18 SPCS",
"OBJECT_NAME":"VANGUARD 1",
"OBJECT_ID":"1958-002B",
"CENTER_NAME":"EARTH",
"REF_FRAME":"TEME",
"TIME_SYSTEM":"UTC",
"MEAN_ELEMENT_THEORY":"SGP4",
"EPOCH":"2022-03-01T09:19:22.947456",
"MEAN_MOTION":"10.84868837",
"ECCENTRICITY":"0.18451110",
"INCLINATION":"34.2578",
"RA_OF_ASC_NODE":"112.3805",
"ARG_OF_PERICENTER":"271.1696",
"MEAN_ANOMALY":"67.9276",
"EPHEMERIS_TYPE":"0",
"CLASSIFICATION_TYPE":"U",
"NORAD_CAT_ID":"5",
"ELEMENT_SET_NO":"999",
"REV_AT_EPOCH":"27280",
"BSTAR":"0.00034342000000",
"MEAN_MOTION_DOT":"0.00000288",
"MEAN_MOTION_DDOT":"0.0000000000000",
"SEMIMAJOR_AXIS":"8619.532",
"PERIOD":"132.735",
"APOAPSIS":"3831.796",
"PERIAPSIS":"650.998",
"OBJECT_TYPE":"PAYLOAD",
"RCS_SIZE":"MEDIUM",
"COUNTRY_CODE":"US",
"LAUNCH_DATE":"1958-03-17",
"SITE":"AFETR",
"DECAY_DATE":null,
"FILE":"3337314",
"GP_ID":"197468889",
"TLE_LINE0":"0 VANGUARD 1",
"TLE_LINE1":"1 00005U 58002B   22060.38846004  .00000288  00000-0  34342-3 0  9990",
"TLE_LINE2":"2 00005  34.2578 112.3805 1845111 271.1696  67.9276 10.84868837272808"},
{"CCSDS_OMM_VERS":"2.0",
"COMMENT":"GENERATED VIA SPACE-TRACK.ORG API",
"CREATION_DATE":"2022-03-02T20:32:07",
"ORIGINATOR":"18 SPCS",
"OBJECT_NAME":"VANGUARD 1",
"OBJECT_ID":"1958-002B",
"CENTER_NAME":"EARTH",
"REF_FRAME":"TEME",
"TIME_SYSTEM":"UTC",
"MEAN_ELEMENT_THEORY":"SGP4",
"EPOCH":"2022-03-02T09:37:54.313248",
"MEAN_MOTION":"10.84869417",
"ECCENTRICITY":"0.18451530",
"INCLINATION":"34.2578",
"RA_OF_ASC_NODE":"109.2616",
"ARG_OF_PERICENTER":"275.7245",
"MEAN_ANOMALY":"63.6955",
"EPHEMERIS_TYPE":"0",
"CLASSIFICATION_TYPE":"U",
"NORAD_CAT_ID":"5",
"ELEMENT_SET_NO":"999",
"REV_AT_EPOCH":"27291",
"BSTAR":"0.00035079000000",
"MEAN_MOTION_DOT":"0.00000293",
"MEAN_MOTION_DDOT":"0.0000000000000",
"SEMIMAJOR_AXIS":"8619.529",
"PERIOD":"132.735",
"APOAPSIS":"3831.829",
"PERIAPSIS":"650.959",
"OBJECT_TYPE":"PAYLOAD",
"RCS_SIZE":"SMALL",
"COUNTRY_CODE":"US",
"LAUNCH_DATE":"1958-03-17",
"SITE":"AFETR",
"DECAY_DATE":null,
"FILE":"3341350",
"GP_ID":"197606143",
"TLE_LINE0":"0 VANGUARD 1",
"TLE_LINE1":"1 00005U 58002B   22061.40132307  .00000293  00000-0  35079-3 0  9992",
"TLE_LINE2":"2 00005  34.2578 109.2616 1845153 275.7245  63.6955 10.84869417272913"},
{"CCSDS_OMM_VERS":"2.0",
"COMMENT":"GENERATED VIA SPACE-TRACK.ORG API",
"CREATION_DATE":"2022-03-03T03:48:30",
"ORIGINATOR":"18 SPCS",
"OBJECT_NAME":"VANGUARD 1",
"OBJECT_ID":"1958-002B",
"CENTER_NAME":"EARTH",
"REF_FRAME":"TEME",
"TIME_SYSTEM":"UTC",
"MEAN_ELEMENT_THEORY":"SGP4",
"EPOCH":"2022-03-02T18:28:17.277888",
"MEAN_MOTION":"10.84869566",
"ECCENTRICITY":"0.18451700",
"INCLINATION":"34.2577",
"RA_OF_ASC_NODE":"108.1274",
"ARG_OF_PERICENTER":"277.3809",
"MEAN_ANOMALY":"62.1864",
"EPHEMERIS_TYPE":"0",
"CLASSIFICATION_TYPE":"U",
"NORAD_CAT_ID":"5",
"ELEMENT_SET_NO":"999",
"REV_AT_EPOCH":"27295",
"BSTAR":"0.00033820000000",
"MEAN_MOTION_DOT":"0.00000283",
"MEAN_MOTION_DDOT":"0.0000000000000",
"SEMIMAJOR_AXIS":"8619.528",
"PERIOD":"132.735",
"APOAPSIS":"3831.843",
"PERIAPSIS":"650.944",
"OBJECT_TYPE":"PAYLOAD",
"RCS_SIZE":"SMALL",
"COUNTRY_CODE":"US",
"LAUNCH_DATE":"1958-03-17",
"SITE":"AFETR",
"DECAY_DATE":null,
"FILE":"3341695",
"GP_ID":"197637637",
"TLE_LINE0":"0 VANGUARD 1",
"TLE_LINE1":"1 00005U 58002B   22061.76964442  .00000283  00000-0  33820-3 0  9995",
"TLE_LINE2":"2 00005  34.2577 108.1274 1845170 277.3809  62.1864 10.84869566272955"},
{"CCSDS_OMM_VERS":"2.0",
"COMMENT":"GENERATED VIA SPACE-TRACK.ORG API",
"CREATION_DATE":"2022-03-02T22:36:16",
"ORIGINATOR":"18 SPCS",
"OBJECT_NAME":"VANGUARD 1",
"OBJECT_ID":"1958-002B",
"CENTER_NAME":"EARTH",
"REF_FRAME":"TEME",
"TIME_SYSTEM":"UTC",
"MEAN_ELEMENT_THEORY":"SGP4",
"EPOCH":"2022-03-02T18:28:17.277888",
"MEAN_MOTION":"10.84869566",
"ECCENTRICITY":"0.18451700",
"INCLINATION":"34.2577",
"RA_OF_ASC_NODE":"108.1274",
"ARG_OF_PERICENTER":"277.3809",
"MEAN_ANOMALY":"62.1864",
"EPHEMERIS_TYPE":"0",
"CLASSIFICATION_TYPE":"U",
"NORAD_CAT_ID":"5",
"ELEMENT_SET_NO":"999",
"REV_AT_EPOCH":"27304",
"BSTAR":"0.00033820000000",
"MEAN_MOTION_DOT":"0.00000283",
"MEAN_MOTION_DDOT":"0.0000000000000",
"SEMIMAJOR_AXIS":"8619.528",
"PERIOD":"132.735",
"APOAPSIS":"3831.843",
"PERIAPSIS":"650.944",
"OBJECT_TYPE":"PAYLOAD",
"RCS_SIZE":"SMALL",
"COUNTRY_CODE":"US",
"LAUNCH_DATE":"1958-03-17",
"SITE":"AFETR",
"DECAY_DATE":null,
"FILE":"3341457",
"GP_ID":"197632472",
"TLE_LINE0":"0 VANGUARD 1",
"TLE_LINE1":"1     5U 58002B   22061.76964442  .00000283  00000-0  33820-3 0  9995",
"TLE_LINE2":"2     5  34.2577 108.1274 1845170 277.3809  62.1864 10.84869566273046"},
{"CCSDS_OMM_VERS":"2.0",
"COMMENT":"GENERATED VIA SPACE-TRACK.ORG API",
"CREATION_DATE":"2022-03-03T17:15:39",
"ORIGINATOR":"18 SPCS",
"OBJECT_NAME":"VANGUARD 1",
"OBJECT_ID":"1958-002B",
"CENTER_NAME":"EARTH",
"REF_FRAME":"TEME",
"TIME_SYSTEM":"UTC",
"MEAN_ELEMENT_THEORY":"SGP4",
"EPOCH":"2022-03-03T12:09:04.220640",
"MEAN_MOTION":"10.84870171",
"ECCENTRICITY":"0.18451920",
"INCLINATION":"34.2575",
"RA_OF_ASC_NODE":"105.8588",
"ARG_OF_PERICENTER":"280.6940",
"MEAN_ANOMALY":"59.2144",
"EPHEMERIS_TYPE":"0",
"CLASSIFICATION_TYPE":"U",
"NORAD_CAT_ID":"5",
"ELEMENT_SET_NO":"999",
"REV_AT_EPOCH":"27303",
"BSTAR":"0.00039282000000",
"MEAN_MOTION_DOT":"0.00000325",
"MEAN_MOTION_DDOT":"0.0000000000000",
"SEMIMAJOR_AXIS":"8619.525",
"PERIOD":"132.735",
"APOAPSIS":"3831.858",
"PERIAPSIS":"650.922",
"OBJECT_TYPE":"PAYLOAD",
"RCS_SIZE":"SMALL",
"COUNTRY_CODE":"US",
"LAUNCH_DATE":"1958-03-17",
"SITE":"AFETR",
"DECAY_DATE":null,
"FILE":"3342689",
"GP_ID":"197685678",
"TLE_LINE0":"0 VANGUARD 1",
"TLE_LINE1":"1 00005U 58002B   22062.50629885  .00000325  00000-0  39282-3 0  9992",
"TLE_LINE2":"2 00005  34.2575 105.8588 1845192 280.6940  59.2144 10.84870171273034"},
{"CCSDS_OMM_VERS":"2.0",
"COMMENT":"GENERATED VIA SPACE-TRACK.ORG API",
"CREATION_DATE":"2022-03-04T19:32:56",
"ORIGINATOR":"18 SPCS",
"OBJECT_NAME":"VANGUARD 1",
"OBJECT_ID":"1958-002B",
"CENTER_NAME":"EARTH",
"REF_FRAME":"TEME",
"TIME_SYSTEM":"UTC",
"MEAN_ELEMENT_THEORY":"SGP4",
"EPOCH":"2022-03-04T10:15:04.705920",
"MEAN_MOTION":"10.84870721",
"ECCENTRICITY":"0.18452150",
"INCLINATION":"34.2574",
"RA_OF_ASC_NODE":"103.0232",
"ARG_OF_PERICENTER":"284.8355",
"MEAN_ANOMALY":"55.5830",
"EPHEMERIS_TYPE":"0",
"CLASSIFICATION_TYPE":"U",
"NORAD_CAT_ID":"5",
"ELEMENT_SET_NO":"999",
"REV_AT_EPOCH":"27313",
"BSTAR":"0.00040154000000",
"MEAN_MOTION_DOT":"0.00000331",
"MEAN_MOTION_DDOT":"0.0000000000000",
"SEMIMAJOR_AXIS":"8619.522",
"PERIOD":"132.735",
"APOAPSIS":"3831.874",
"PERIAPSIS":"650.900",
"OBJECT_TYPE":"PAYLOAD",
"RCS_SIZE":"SMALL",
"COUNTRY_CODE":"US",
"LAUNCH_DATE":"1958-03-17",
"SITE":"AFETR",
"DECAY_DATE":null,
"FILE":"3344357",
"GP_ID":"197822363",
"TLE_LINE0":"0 VANGUARD 1",
"TLE_LINE1":"1 00005U 58002B   22063.42713780  .00000331  00000-0  40154-3 0  9999",
"TLE_LINE2":"2 00005  34.2574 103.0232 1845215 284.8355  55.5830 10.84870721273134"}]